CTC2_L_00493001-01
1 48694U 25601EB  26070.40849537  .00000000  00000+0  00000-0 0  9999
2 48694 100.4000   0.0000 0000000   0.0000   0.0000 13.16009679    11
CTC2_L_00493002-01
1 48695U 24723Q   26070.40849537  .00000000  00000+0  00000-0 0  9994
2 48695 100.4000  12.0000 0000000   0.0000  48.0000 13.16009679    17
CTC2_L_00493003-01
1 48696U 24607DV  26070.40849537  .00000000  00000+0  00000-0 0  9996
2 48696 100.4000  24.0000 0000000   0.0000  96.0000 13.16009679    14
CTC2_L_00493004-01
1 48697U 24093PY  26070.40849537  .00000000  00000+0  00000-0 0  9996
2 48697 100.4000  36.0000 0000000   0.0000 144.0000 13.16009679    12
CTC2_L_00493005-01
1 48698U 22452FI  26070.40849537  .00000000  00000+0  00000-0 0  9994
2 48698 100.4000  48.0000 0000000   0.0000 192.0000 13.16009679    19
CTC2_L_00493006-01
1 48699U 24699VI  26070.40849537  .00000000  00000+0  00000-0 0  9990
2 48699 100.4000  60.0000 0000000   0.0000 240.0000 13.16009679    18
CTC2_L_00493007-01
1 48700U 22823OF  26070.40849537  .00000000  00000+0  00000-0 0  9990
2 48700 100.4000  72.0000 0000000   0.0000 288.0000 13.16009679    16
CTC2_L_00493008-01
1 48701U 24584OM  26070.40849537  .00000000  00000+0  00000-0 0  9997
2 48701 100.4000  84.0000 0000000   0.0000 336.0000 13.16009679    14
CTC2_L_00493009-01
1 48702U 23907OB  26070.40849537  .00000000  00000+0  00000-0 0  9996
2 48702 100.4000  96.0000 0000000   0.0000  24.0000 13.16009679    12
CTC2_L_00493010-01
1 48703U 23769XK  26070.40849537  .00000000  00000+0  00000-0 0  9993
2 48703 100.4000 108.0000 0000000   0.0000  72.0000 13.16009679    10
CTC2_L_00493011-01
1 48704U 24350CY  26070.40849537  .00000000  00000+0  00000-0 0  9991
2 48704 100.4000 120.0000 0000000   0.0000 120.0000 13.16009679    19
CTC2_L_00493012-01
1 48705U 25954OD  26070.40849537  .00000000  00000+0  00000-0 0  9993
2 48705 100.4000 132.0000 0000000   0.0000 168.0000 13.16009679    15
CTC2_L_00493013-01
1 48706U 24175CI  26070.40849537  .00000000  00000+0  00000-0 0  9998
2 48706 100.4000 144.0000 0000000   0.0000 216.0000 13.16009679    13
CTC2_L_00493014-01
1 48707U 24230KR  26070.40849537  .00000000  00000+0  00000-0 0  9991
2 48707 100.4000 156.0000 0000000   0.0000 264.0000 13.16009679    10
CTC2_L_00493015-01
1 48708U 24909OD  26070.40849537  .00000000  00000+0  00000-0 0  9995
2 48708 100.4000 168.0000 0000000   0.0000 312.0000 13.16009679    18
CTC2_L_00493016-01
1 48709U 22215I   26070.40849537  .00000000  00000+0  00000-0 0  9994
2 48709 100.4000 180.0000 0000000   0.0000   0.0000 13.16009679    17
CTC2_L_00493017-01
1 48710U 22446WI  26070.40849537  .00000000  00000+0  00000-0 0  9992
2 48710 100.4000 192.0000 0000000   0.0000  48.0000 13.16009679    14
CTC2_L_00493018-01
1 48711U 22652MX  26070.40849537  .00000000  00000+0  00000-0 0  9992
2 48711 100.4000 204.0000 0000000   0.0000  96.0000 13.16009679    12
CTC2_L_00493019-01
1 48712U 25167AC  26070.40849537  .00000000  00000+0  00000-0 0  9997
2 48712 100.4000 216.0000 0000000   0.0000 144.0000 13.16009679    10
CTC2_L_00493020-01
1 48713U 24687OG  26070.40849537  .00000000  00000+0  00000-0 0  9994
2 48713 100.4000 228.0000 0000000   0.0000 192.0000 13.16009679    17
CTC2_L_00493021-01
1 48714U 23707WM  26070.40849537  .00000000  00000+0  00000-0 0  9997
2 48714 100.4000 240.0000 0000000   0.0000 240.0000 13.16009679    16
CTC2_L_00493022-01
1 48715U 26542SG  26070.40849537  .00000000  00000+0  00000-0 0  9998
2 48715 100.4000 252.0000 0000000   0.0000 288.0000 13.16009679    12
CTC2_L_00493023-01
1 48716U 26425GI  26070.40849537  .00000000  00000+0  00000-0 0  9999
2 48716 100.4000 264.0000 0000000   0.0000 336.0000 13.16009679    10
CTC2_L_00493024-01
1 48717U 24111ZF  26070.40849537  .00000000  00000+0  00000-0 0  9990
2 48717 100.4000 276.0000 0000000   0.0000  24.0000 13.16009679    18
CTC2_L_00493025-01
1 48718U 22031JZ  26070.40849537  .00000000  00000+0  00000-0 0  9990
2 48718 100.4000 288.0000 0000000   0.0000  72.0000 13.16009679    15
CTC2_L_00493026-01
1 48719U 22566KJ  26070.40849537  .00000000  00000+0  00000-0 0  9994
2 48719 100.4000 300.0000 0000000   0.0000 120.0000 13.16009679    15
CTC2_L_00493027-01
1 48720U 26498VJ  26070.40849537  .00000000  00000+0  00000-0 0  9994
2 48720 100.4000 312.0000 0000000   0.0000 168.0000 13.16009679    12
CTC2_L_00493028-01
1 48721U 23176SX  26070.40849537  .00000000  00000+0  00000-0 0  9995
2 48721 100.4000 324.0000 0000000   0.0000 216.0000 13.16009679    10
CTC2_L_00493029-01
1 48722U 23641UV  26070.40849537  .00000000  00000+0  00000-0 0  9993
2 48722 100.4000 336.0000 0000000   0.0000 264.0000 13.16009679    17
CTC2_L_00493030-01
1 48723U 22505CE  26070.40849537  .00000000  00000+0  00000-0 0  9992
2 48723 100.4000 348.0000 0000000   0.0000 312.0000 13.16009679    15
